YOTSUBA-KULOVER         
1 65941U 98067XN  26052.61219142  .00134733  00000+0  89725-3 0  9990
2 65941  51.6233 140.2764 0005627 343.3622  16.7192 15.74450170 20961
BOTAN                   
1 65942U 98067XP  26052.59975990  .00609668  16728-3  14362-2 0  9994
2 65942  51.6138 134.8513 0009860   1.0978 359.0050 15.96170388 21031
E-KAGAKU-1              
1 65943U 98067XQ  26052.61412559  .00131011  00000+0  87964-3 0  9998
2 65943  51.6258 140.3031 0005620 353.0788   7.0133 15.74273931 20968
HRC MONOBLOCK CAMERA    
1 66052U 98067XR  26052.57029798  .00044204  00000+0  53101-3 0  9997
2 66052  51.6281 146.7727 0002683  29.8437 330.2709 15.60417455 19877
HTV-X1                  
1 66174U 25241A   26052.57165169  .00010573  00000+0  20534-3 0  9995
2 66174  51.6321 152.0271 0008520 119.1208 241.0634 15.48184707   510
SZ-21 MODULE            
1 66515U 25246C   26052.38477211  .00035146  00000+0  31960-3 0  9990
2 66515  41.4754 303.6299 0001649 294.6489  65.4180 15.67228178 15517
SHENZHOU-22             
1 66645U 25272A   26052.58570698  .00018430  00000+0  22529-3 0  9996
2 66645  41.4670 306.0957 0004984 164.3511 195.7483 15.59967425267642
SOYUZ-MS 28             
1 66664U 25275A   26052.57165169  .00010573  00000+0  20534-3 0  9996
2 66664  51.6321 152.0271 0008520 119.1208 241.0634 15.48184707  1289
DUPLEX                  
1 66906U 98067XS  26052.52613021  .00031243  00000+0  46127-3 0  9997
2 66906  51.6296 150.2273 0001568  76.5809 283.5357 15.55068212 12611
ISS OBJECT XT           
1 66907U 98067XT  26052.50870947  .00108535  00000+0  10945-2 0  9995
2 66907  51.6264 147.8562 0003422 351.4977   8.5959 15.64528122 12649
ISS OBJECT XU           
1 66908U 98067XU  26052.50779540  .00109570  00000+0  11026-2 0  9994
2 66908  51.6262 147.8468 0003383 355.4234   4.6729 15.64577589 12642
SILVERSAT               
1 66909U 98067XV  26052.46917666  .00148121  00000+0  13740-2 0  9993
2 66909  51.6263 147.5901 0004275 349.0523  11.0379 15.66462804 12642
