CCSDS_OMM_VERS = 2.0
CREATION_DATE  = 
ORIGINATOR     = 

OBJECT_NAME    = YOTSUBA-KULOVER
OBJECT_ID      = 1998-067XN
CENTER_NAME    = EARTH
REF_FRAME      = TEME
TIME_SYSTEM    = UTC
MEAN_ELEMENT_THEORY = SGP/SGP4

EPOCH          = 2026-02-21T14:41:33.338688
MEAN_MOTION    = 15.74450170
ECCENTRICITY   = .00056273
INCLINATION    = 51.6233
RA_OF_ASC_NODE = 140.2764
ARG_OF_PERICENTER = 343.3622
MEAN_ANOMALY   = 16.7192

EPHEMERIS_TYPE = 0
CLASSIFICATION_TYPE = U
NORAD_CAT_ID   = 65941
ELEMENT_SET_NO = 999
REV_AT_EPOCH   = 2096
BSTAR          = .89725466E-3
MEAN_MOTION_DOT = .134733E-2
MEAN_MOTION_DDOT = 0

CCSDS_OMM_VERS = 2.0
CREATION_DATE  = 
ORIGINATOR     = 

OBJECT_NAME    = BOTAN
OBJECT_ID      = 1998-067XP
CENTER_NAME    = EARTH
REF_FRAME      = TEME
TIME_SYSTEM    = UTC
MEAN_ELEMENT_THEORY = SGP/SGP4

EPOCH          = 2026-02-21T14:23:39.255360
MEAN_MOTION    = 15.96170388
ECCENTRICITY   = .00098602
INCLINATION    = 51.6138
RA_OF_ASC_NODE = 134.8513
ARG_OF_PERICENTER = 1.0978
MEAN_ANOMALY   = 359.0050

EPHEMERIS_TYPE = 0
CLASSIFICATION_TYPE = U
NORAD_CAT_ID   = 65942
ELEMENT_SET_NO = 999
REV_AT_EPOCH   = 2103
BSTAR          = .14362388E-2
MEAN_MOTION_DOT = .609668E-2
MEAN_MOTION_DDOT = .16727597E-3

CCSDS_OMM_VERS = 2.0
CREATION_DATE  = 
ORIGINATOR     = 

OBJECT_NAME    = E-KAGAKU-1
OBJECT_ID      = 1998-067XQ
CENTER_NAME    = EARTH
REF_FRAME      = TEME
TIME_SYSTEM    = UTC
MEAN_ELEMENT_THEORY = SGP/SGP4

EPOCH          = 2026-02-21T14:44:20.450976
MEAN_MOTION    = 15.74273931
ECCENTRICITY   = .00056206
INCLINATION    = 51.6258
RA_OF_ASC_NODE = 140.3031
ARG_OF_PERICENTER = 353.0788
MEAN_ANOMALY   = 7.0133

EPHEMERIS_TYPE = 0
CLASSIFICATION_TYPE = U
NORAD_CAT_ID   = 65943
ELEMENT_SET_NO = 999
REV_AT_EPOCH   = 2096
BSTAR          = .87964255E-3
MEAN_MOTION_DOT = .131011E-2
MEAN_MOTION_DDOT = 0

CCSDS_OMM_VERS = 2.0
CREATION_DATE  = 
ORIGINATOR     = 

OBJECT_NAME    = HRC MONOBLOCK CAMERA
OBJECT_ID      = 1998-067XR
CENTER_NAME    = EARTH
REF_FRAME      = TEME
TIME_SYSTEM    = UTC
MEAN_ELEMENT_THEORY = SGP/SGP4

EPOCH          = 2026-02-21T13:41:13.745472
MEAN_MOTION    = 15.60417455
ECCENTRICITY   = .00026831
INCLINATION    = 51.6281
RA_OF_ASC_NODE = 146.7727
ARG_OF_PERICENTER = 29.8437
MEAN_ANOMALY   = 330.2709

EPHEMERIS_TYPE = 0
CLASSIFICATION_TYPE = U
NORAD_CAT_ID   = 66052
ELEMENT_SET_NO = 999
REV_AT_EPOCH   = 1987
BSTAR          = .53101016E-3
MEAN_MOTION_DOT = .44204E-3
MEAN_MOTION_DDOT = 0

CCSDS_OMM_VERS = 2.0
CREATION_DATE  = 
ORIGINATOR     = 

OBJECT_NAME    = HTV-X1
OBJECT_ID      = 2025-241A
CENTER_NAME    = EARTH
REF_FRAME      = TEME
TIME_SYSTEM    = UTC
MEAN_ELEMENT_THEORY = SGP/SGP4

EPOCH          = 2026-02-21T13:43:10.706016
MEAN_MOTION    = 15.48184707
ECCENTRICITY   = .00085206
INCLINATION    = 51.6321
RA_OF_ASC_NODE = 152.0271
ARG_OF_PERICENTER = 119.1208
MEAN_ANOMALY   = 241.0634

EPHEMERIS_TYPE = 0
CLASSIFICATION_TYPE = U
NORAD_CAT_ID   = 66174
ELEMENT_SET_NO = 999
REV_AT_EPOCH   = 51
BSTAR          = .20534485E-3
MEAN_MOTION_DOT = .10573E-3
MEAN_MOTION_DDOT = 0

CCSDS_OMM_VERS = 2.0
CREATION_DATE  = 
ORIGINATOR     = 

OBJECT_NAME    = SZ-21 MODULE
OBJECT_ID      = 2025-246C
CENTER_NAME    = EARTH
REF_FRAME      = TEME
TIME_SYSTEM    = UTC
MEAN_ELEMENT_THEORY = SGP/SGP4

EPOCH          = 2026-02-21T09:14:04.310304
MEAN_MOTION    = 15.67228178
ECCENTRICITY   = .00016493
INCLINATION    = 41.4754
RA_OF_ASC_NODE = 303.6299
ARG_OF_PERICENTER = 294.6489
MEAN_ANOMALY   = 65.4180

EPHEMERIS_TYPE = 0
CLASSIFICATION_TYPE = U
NORAD_CAT_ID   = 66515
ELEMENT_SET_NO = 999
REV_AT_EPOCH   = 1551
BSTAR          = .31960011E-3
MEAN_MOTION_DOT = .35146E-3
MEAN_MOTION_DDOT = 0

CCSDS_OMM_VERS = 2.0
CREATION_DATE  = 
ORIGINATOR     = 

OBJECT_NAME    = SHENZHOU-22
OBJECT_ID      = 2025-272A
CENTER_NAME    = EARTH
REF_FRAME      = TEME
TIME_SYSTEM    = UTC
MEAN_ELEMENT_THEORY = SGP/SGP4

EPOCH          = 2026-02-21T14:03:25.083072
MEAN_MOTION    = 15.59967425
ECCENTRICITY   = .00049843
INCLINATION    = 41.4670
RA_OF_ASC_NODE = 306.0957
ARG_OF_PERICENTER = 164.3511
MEAN_ANOMALY   = 195.7483

EPHEMERIS_TYPE = 0
CLASSIFICATION_TYPE = U
NORAD_CAT_ID   = 66645
ELEMENT_SET_NO = 999
REV_AT_EPOCH   = 26764
BSTAR          = .22529145E-3
MEAN_MOTION_DOT = .1843E-3
MEAN_MOTION_DDOT = 0

CCSDS_OMM_VERS = 2.0
CREATION_DATE  = 
ORIGINATOR     = 

OBJECT_NAME    = SOYUZ-MS 28
OBJECT_ID      = 2025-275A
CENTER_NAME    = EARTH
REF_FRAME      = TEME
TIME_SYSTEM    = UTC
MEAN_ELEMENT_THEORY = SGP/SGP4

EPOCH          = 2026-02-21T13:43:10.706016
MEAN_MOTION    = 15.48184707
ECCENTRICITY   = .00085206
INCLINATION    = 51.6321
RA_OF_ASC_NODE = 152.0271
ARG_OF_PERICENTER = 119.1208
MEAN_ANOMALY   = 241.0634

EPHEMERIS_TYPE = 0
CLASSIFICATION_TYPE = U
NORAD_CAT_ID   = 66664
ELEMENT_SET_NO = 999
REV_AT_EPOCH   = 128
BSTAR          = .20534485E-3
MEAN_MOTION_DOT = .10573E-3
MEAN_MOTION_DDOT = 0

CCSDS_OMM_VERS = 2.0
CREATION_DATE  = 
ORIGINATOR     = 

OBJECT_NAME    = DUPLEX
OBJECT_ID      = 1998-067XS
CENTER_NAME    = EARTH
REF_FRAME      = TEME
TIME_SYSTEM    = UTC
MEAN_ELEMENT_THEORY = SGP/SGP4

EPOCH          = 2026-02-21T12:37:37.650144
MEAN_MOTION    = 15.55068212
ECCENTRICITY   = .00015683
INCLINATION    = 51.6296
RA_OF_ASC_NODE = 150.2273
ARG_OF_PERICENTER = 76.5809
MEAN_ANOMALY   = 283.5357

EPHEMERIS_TYPE = 0
CLASSIFICATION_TYPE = U
NORAD_CAT_ID   = 66906
ELEMENT_SET_NO = 999
REV_AT_EPOCH   = 1261
BSTAR          = .46126735E-3
MEAN_MOTION_DOT = .31243E-3
MEAN_MOTION_DDOT = 0

CCSDS_OMM_VERS = 2.0
CREATION_DATE  = 
ORIGINATOR     = 

OBJECT_NAME    = ISS OBJECT XT
OBJECT_ID      = 1998-067XT
CENTER_NAME    = EARTH
REF_FRAME      = TEME
TIME_SYSTEM    = UTC
MEAN_ELEMENT_THEORY = SGP/SGP4

EPOCH          = 2026-02-21T12:12:32.498208
MEAN_MOTION    = 15.64528122
ECCENTRICITY   = .00034229
INCLINATION    = 51.6264
RA_OF_ASC_NODE = 147.8562
ARG_OF_PERICENTER = 351.4977
MEAN_ANOMALY   = 8.5959

EPHEMERIS_TYPE = 0
CLASSIFICATION_TYPE = U
NORAD_CAT_ID   = 66907
ELEMENT_SET_NO = 999
REV_AT_EPOCH   = 1264
BSTAR          = .10945411E-2
MEAN_MOTION_DOT = .108535E-2
MEAN_MOTION_DDOT = 0

CCSDS_OMM_VERS = 2.0
CREATION_DATE  = 
ORIGINATOR     = 

OBJECT_NAME    = ISS OBJECT XU
OBJECT_ID      = 1998-067XU
CENTER_NAME    = EARTH
REF_FRAME      = TEME
TIME_SYSTEM    = UTC
MEAN_ELEMENT_THEORY = SGP/SGP4

EPOCH          = 2026-02-21T12:11:13.522560
MEAN_MOTION    = 15.64577589
ECCENTRICITY   = .00033836
INCLINATION    = 51.6262
RA_OF_ASC_NODE = 147.8468
ARG_OF_PERICENTER = 355.4234
MEAN_ANOMALY   = 4.6729

EPHEMERIS_TYPE = 0
CLASSIFICATION_TYPE = U
NORAD_CAT_ID   = 66908
ELEMENT_SET_NO = 999
REV_AT_EPOCH   = 1264
BSTAR          = .11026309E-2
MEAN_MOTION_DOT = .10957E-2
MEAN_MOTION_DDOT = 0

CCSDS_OMM_VERS = 2.0
CREATION_DATE  = 
ORIGINATOR     = 

OBJECT_NAME    = SILVERSAT
OBJECT_ID      = 1998-067XV
CENTER_NAME    = EARTH
REF_FRAME      = TEME
TIME_SYSTEM    = UTC
MEAN_ELEMENT_THEORY = SGP/SGP4

EPOCH          = 2026-02-21T11:15:36.863424
MEAN_MOTION    = 15.66462804
ECCENTRICITY   = .00042756
INCLINATION    = 51.6263
RA_OF_ASC_NODE = 147.5901
ARG_OF_PERICENTER = 349.0523
MEAN_ANOMALY   = 11.0379

EPHEMERIS_TYPE = 0
CLASSIFICATION_TYPE = U
NORAD_CAT_ID   = 66909
ELEMENT_SET_NO = 999
REV_AT_EPOCH   = 1264
BSTAR          = .13740226E-2
MEAN_MOTION_DOT = .148121E-2
MEAN_MOTION_DDOT = 0

